[{"OBJECT_NAME":"STARLINK-5964","OBJECT_ID":"2023-042Z","EPOCH":"2026-03-09T00:25:17.622048","MEAN_MOTION":15.02616862,"ECCENTRICITY":0.00015763,"INCLINATION":43.0047,"RA_OF_ASC_NODE":59.3853,"ARG_OF_PERICENTER":249.2966,"MEAN_ANOMALY":110.7707,"EPHEMERIS_TYPE":0,"CLASSIFICATION_TYPE":"U","NORAD_CAT_ID":56009,"ELEMENT_SET_NO":999,"REV_AT_EPOCH":16281,"BSTAR":-0.001285248,"MEAN_MOTION_DOT":-0.00017559,"MEAN_MOTION_DDOT":0},{"OBJECT_NAME":"CZ-6A DEB","OBJECT_ID":"2022-151MR","EPOCH":"2026-03-09T04:38:57.025248","MEAN_MOTION":14.83234999,"ECCENTRICITY":0.00930298,"INCLINATION":98.7155,"RA_OF_ASC_NODE":156.563,"ARG_OF_PERICENTER":210.5568,"MEAN_ANOMALY":149.0205,"EPHEMERIS_TYPE":0,"CLASSIFICATION_TYPE":"U","NORAD_CAT_ID":54591,"ELEMENT_SET_NO":999,"REV_AT_EPOCH":10171,"BSTAR":0.0039988964,"MEAN_MOTION_DOT":0.00035363,"MEAN_MOTION_DDOT":0}]
